start=new Date('2021-10-29T00:00:00.000Z').valueOf();
sats=[{"MEAN_MOTION_DOT":"0.00000677","EPHEMERIS_TYPE":"0","ECCENTRICITY":"0.00013580","DECAY_DATE":null,"REV_AT_EPOCH":"2689","OBJECT_ID":"2021-038E","TLE_LINE2":"2 48357  53.0556 313.8729 0001358  77.3886 282.7255 15.06403418 26890","RA_OF_ASC_NODE":"313.8729","MEAN_MOTION_DDOT":"0.0000000000000","REF_FRAME":"TEME","OBJECT_TYPE":"PAYLOAD","CLASSIFICATION_TYPE":"U","FILE":"3189402","TLE_LINE1":"1 48357U 21038E   21301.46551363  .00000677  00000-0  64347-4 0  9999","GP_ID":"188367352","MEAN_ELEMENT_THEORY":"SGP4","SITE":"AFETR","ARG_OF_PERICENTER":"77.3886","LAUNCH_DATE":"2021-05-04","MEAN_ANOMALY":"282.7255","PERIOD":"95.592","EPOCH":"2021-10-28T11:10:20.377632","SEMIMAJOR_AXIS":"6925.338","BSTAR":"0.00006434700000","TIME_SYSTEM":"UTC","MEAN_MOTION":"15.06403418","APOAPSIS":"548.144","INCLINATION":"53.0556","RCS_SIZE":"LARGE","PERIAPSIS":"546.263","CENTER_NAME":"EARTH","COUNTRY_CODE":"US","ELEMENT_SET_NO":"999","NORAD_CAT_ID":"48357","OBJECT_NAME":"STARLINK-2636"},{"MEAN_ANOMALY":"290.1565","LAUNCH_DATE":"2021-05-04","BSTAR":"-0.00005652900000","PERIOD":"95.593","EPOCH":"2021-10-28T11:05:02.594112","SEMIMAJOR_AXIS":"6925.367","APOAPSIS":"548.297","INCLINATION":"53.0526","RCS_SIZE":"LARGE","CENTER_NAME":"EARTH","PERIAPSIS":"546.168","TIME_SYSTEM":"UTC","MEAN_MOTION":"15.06393900","NORAD_CAT_ID":"48358","OBJECT_NAME":"STARLINK-2624","COUNTRY_CODE":"US","ELEMENT_SET_NO":"999","EPHEMERIS_TYPE":"0","MEAN_MOTION_DOT":"-0.00001123","REV_AT_EPOCH":"2688","OBJECT_ID":"2021-038F","RA_OF_ASC_NODE":"313.8982","TLE_LINE2":"2 48358  53.0526 313.8982 0001537  69.9589 290.1565 15.06393900 26885","MEAN_MOTION_DDOT":"0.0000000000000","ECCENTRICITY":"0.00015370","DECAY_DATE":null,"GP_ID":"188368103","TLE_LINE1":"1 48358U 21038F   21301.46183558 -.00001123  00000-0 -56529-4 0  9999","REF_FRAME":"TEME","OBJECT_TYPE":"PAYLOAD","CLASSIFICATION_TYPE":"U","FILE":"3189402","ARG_OF_PERICENTER":"69.9589","MEAN_ELEMENT_THEORY":"SGP4","SITE":"AFETR"},{"MEAN_MOTION":"15.06402948","TIME_SYSTEM":"UTC","RCS_SIZE":"LARGE","CENTER_NAME":"EARTH","PERIAPSIS":"546.218","APOAPSIS":"548.191","INCLINATION":"53.0560","COUNTRY_CODE":"US","ELEMENT_SET_NO":"999","NORAD_CAT_ID":"48359","OBJECT_NAME":"STARLINK-2628","LAUNCH_DATE":"2021-05-04","MEAN_ANOMALY":"284.6591","SEMIMAJOR_AXIS":"6925.340","PERIOD":"95.592","EPOCH":"2021-10-28T10:59:43.852416","BSTAR":"0.00006366600000","FILE":"3189402","REF_FRAME":"TEME","OBJECT_TYPE":"PAYLOAD","CLASSIFICATION_TYPE":"U","GP_ID":"188368350","TLE_LINE1":"1 48359U 21038G   21301.45814644  .00000667  00000-0  63666-4 0  9996","SITE":"AFETR","MEAN_ELEMENT_THEORY":"SGP4","ARG_OF_PERICENTER":"75.4556","MEAN_MOTION_DOT":"0.00000667","EPHEMERIS_TYPE":"0","ECCENTRICITY":"0.00014240","DECAY_DATE":null,"OBJECT_ID":"2021-038G","TLE_LINE2":"2 48359  53.0560 313.9047 0001424  75.4556 284.6591 15.06402948 26888","MEAN_MOTION_DDOT":"0.0000000000000","RA_OF_ASC_NODE":"313.9047","REV_AT_EPOCH":"2688"},{"MEAN_ANOMALY":"289.7540","LAUNCH_DATE":"2021-05-04","BSTAR":"0.00070214000000","EPOCH":"2021-10-28T10:54:26.398080","PERIOD":"95.594","SEMIMAJOR_AXIS":"6925.460","INCLINATION":"53.0553","APOAPSIS":"548.524","CENTER_NAME":"EARTH","PERIAPSIS":"546.125","RCS_SIZE":"LARGE","TIME_SYSTEM":"UTC","MEAN_MOTION":"15.06363696","OBJECT_NAME":"STARLINK-2622","NORAD_CAT_ID":"48360","ELEMENT_SET_NO":"999","COUNTRY_CODE":"US","EPHEMERIS_TYPE":"0","MEAN_MOTION_DOT":"0.00010182","REV_AT_EPOCH":"2688","TLE_LINE2":"2 48360  53.0553 313.9146 0001732  70.3636 289.7540 15.06363696 26883","RA_OF_ASC_NODE":"313.9146","MEAN_MOTION_DDOT":"0.0000000000000","OBJECT_ID":"2021-038H","DECAY_DATE":null,"ECCENTRICITY":"0.00017320","TLE_LINE1":"1 48360U 21038H   21301.45447220  .00010182  00000-0  70214-3 0  9999","GP_ID":"188367102","CLASSIFICATION_TYPE":"U","OBJECT_TYPE":"PAYLOAD","REF_FRAME":"TEME","FILE":"3189402","ARG_OF_PERICENTER":"70.3636","MEAN_ELEMENT_THEORY":"SGP4","SITE":"AFETR"},{"LAUNCH_DATE":"2021-05-04","MEAN_ANOMALY":"281.5065","SEMIMAJOR_AXIS":"6925.382","PERIOD":"95.593","EPOCH":"2021-10-28T20:22:21.412416","BSTAR":"0.00000088960000","MEAN_MOTION":"15.06389008","TIME_SYSTEM":"UTC","CENTER_NAME":"EARTH","PERIAPSIS":"546.384","RCS_SIZE":"LARGE","INCLINATION":"53.0550","APOAPSIS":"548.111","ELEMENT_SET_NO":"999","COUNTRY_CODE":"US","OBJECT_NAME":"STARLINK-2591","NORAD_CAT_ID":"48361","MEAN_MOTION_DOT":"-0.00000268","EPHEMERIS_TYPE":"0","DECAY_DATE":null,"ECCENTRICITY":"0.00012470","TLE_LINE2":"2 48361  53.0550 312.2301 0001247  78.6064 281.5065 15.06389008 26947","MEAN_MOTION_DDOT":"0.0000000000000","RA_OF_ASC_NODE":"312.2301","OBJECT_ID":"2021-038J","REV_AT_EPOCH":"2694","FILE":"3189402","CLASSIFICATION_TYPE":"U","OBJECT_TYPE":"PAYLOAD","REF_FRAME":"TEME","TLE_LINE1":"1 48361U 21038J   21301.84885894 -.00000268  00000-0  88960-6 0  9991","GP_ID":"188367853","SITE":"AFETR","MEAN_ELEMENT_THEORY":"SGP4","ARG_OF_PERICENTER":"78.6064"},{"EPOCH":"2021-10-28T09:44:43.619424","PERIOD":"95.695","SEMIMAJOR_AXIS":"6930.323","BSTAR":"0.00000342890000","LAUNCH_DATE":"2021-05-04","MEAN_ANOMALY":"291.8343","COUNTRY_CODE":"US","ELEMENT_SET_NO":"999","NORAD_CAT_ID":"48362","OBJECT_NAME":"STARLINK-2578","TIME_SYSTEM":"UTC","MEAN_MOTION":"15.04778248","APOAPSIS":"553.034","INCLINATION":"53.0552","RCS_SIZE":"LARGE","CENTER_NAME":"EARTH","PERIAPSIS":"551.343","ECCENTRICITY":"0.00012200","DECAY_DATE":null,"REV_AT_EPOCH":"2688","OBJECT_ID":"2021-038K","RA_OF_ASC_NODE":"314.0469","TLE_LINE2":"2 48362  53.0552 314.0469 0001220  68.2775 291.8343 15.04778248 26882","MEAN_MOTION_DDOT":"0.0000000000000","MEAN_MOTION_DOT":"-0.00000228","EPHEMERIS_TYPE":"0","MEAN_ELEMENT_THEORY":"SGP4","SITE":"AFETR","ARG_OF_PERICENTER":"68.2775","REF_FRAME":"TEME","OBJECT_TYPE":"PAYLOAD","CLASSIFICATION_TYPE":"U","FILE":"3189111","TLE_LINE1":"1 48362U 21038K   21301.40606041 -.00000228  00000-0  34289-5 0  9999","GP_ID":"188338308"},{"COUNTRY_CODE":"US","ELEMENT_SET_NO":"999","NORAD_CAT_ID":"48363","OBJECT_NAME":"STARLINK-2626","TIME_SYSTEM":"UTC","MEAN_MOTION":"15.06404363","APOAPSIS":"548.069","INCLINATION":"53.0556","RCS_SIZE":"LARGE","PERIAPSIS":"546.332","CENTER_NAME":"EARTH","EPOCH":"2021-10-28T10:15:17.444736","PERIOD":"95.592","SEMIMAJOR_AXIS":"6925.335","BSTAR":"0.00000691310000","LAUNCH_DATE":"2021-05-04","MEAN_ANOMALY":"284.4726","MEAN_ELEMENT_THEORY":"SGP4","SITE":"AFETR","ARG_OF_PERICENTER":"75.6403","OBJECT_TYPE":"PAYLOAD","REF_FRAME":"TEME","CLASSIFICATION_TYPE":"U","FILE":"3189402","TLE_LINE1":"1 48363U 21038L   21301.42728524 -.00000178  00000-0  69131-5 0  9991","GP_ID":"188367850","ECCENTRICITY":"0.00012540","DECAY_DATE":null,"REV_AT_EPOCH":"2695","OBJECT_ID":"2021-038L","TLE_LINE2":"2 48363  53.0556 309.0387 0001254  75.6403 284.4726 15.06404363 26954","RA_OF_ASC_NODE":"309.0387","MEAN_MOTION_DDOT":"0.0000000000000","MEAN_MOTION_DOT":"-0.00000178","EPHEMERIS_TYPE":"0"},{"PERIAPSIS":"546.228","CENTER_NAME":"EARTH","RCS_SIZE":"LARGE","INCLINATION":"53.0560","APOAPSIS":"548.177","MEAN_MOTION":"15.06403693","TIME_SYSTEM":"UTC","OBJECT_NAME":"STARLINK-2611","NORAD_CAT_ID":"48364","ELEMENT_SET_NO":"999","COUNTRY_CODE":"US","MEAN_ANOMALY":"290.6716","LAUNCH_DATE":"2021-05-04","BSTAR":"0.00006198200000","SEMIMAJOR_AXIS":"6925.337","EPOCH":"2021-10-28T10:08:35.936160","PERIOD":"95.592","GP_ID":"188339310","TLE_LINE1":"1 48364U 21038M   21301.42263815  .00000642  00000-0  61982-4 0  9999","FILE":"3189111","CLASSIFICATION_TYPE":"U","REF_FRAME":"TEME","OBJECT_TYPE":"PAYLOAD","ARG_OF_PERICENTER":"69.4424","SITE":"AFETR","MEAN_ELEMENT_THEORY":"SGP4","EPHEMERIS_TYPE":"0","MEAN_MOTION_DOT":"0.00000642","MEAN_MOTION_DDOT":"0.0000000000000","TLE_LINE2":"2 48364  53.0560 309.0603 0001407  69.4424 290.6716 15.06403693 26958","RA_OF_ASC_NODE":"309.0603","OBJECT_ID":"2021-038M","REV_AT_EPOCH":"2695","DECAY_DATE":null,"ECCENTRICITY":"0.00014070"},{"BSTAR":"-0.00006990700000","PERIOD":"95.592","EPOCH":"2021-10-28T09:38:07.535904","SEMIMAJOR_AXIS":"6925.334","MEAN_ANOMALY":"274.3317","LAUNCH_DATE":"2021-05-04","NORAD_CAT_ID":"48365","OBJECT_NAME":"STARLINK-2608","COUNTRY_CODE":"US","ELEMENT_SET_NO":"999","APOAPSIS":"548.172","INCLINATION":"53.0565","RCS_SIZE":"LARGE","PERIAPSIS":"546.225","CENTER_NAME":"EARTH","TIME_SYSTEM":"UTC","MEAN_MOTION":"15.06404906","REV_AT_EPOCH":"2695","OBJECT_ID":"2021-038N","TLE_LINE2":"2 48365  53.0565 309.1605 0001406  85.7832 274.3317 15.06404906 26954","RA_OF_ASC_NODE":"309.1605","MEAN_MOTION_DDOT":"0.0000000000000","ECCENTRICITY":"0.00014060","DECAY_DATE":null,"EPHEMERIS_TYPE":"0","MEAN_MOTION_DOT":"-0.00001323","ARG_OF_PERICENTER":"85.7832","MEAN_ELEMENT_THEORY":"SGP4","SITE":"AFETR","TLE_LINE1":"1 48365U 21038N   21301.40147611 -.00001323  00000-0 -69907-4 0  9997","GP_ID":"188338058","OBJECT_TYPE":"PAYLOAD","REF_FRAME":"TEME","CLASSIFICATION_TYPE":"U","FILE":"3189111"},{"EPOCH":"2021-10-28T07:44:40.144704","PERIOD":"95.592","SEMIMAJOR_AXIS":"6925.342","BSTAR":"0.00006310500000","LAUNCH_DATE":"2021-05-04","MEAN_ANOMALY":"279.2780","ELEMENT_SET_NO":"999","COUNTRY_CODE":"US","OBJECT_NAME":"STARLINK-2631","NORAD_CAT_ID":"48366","TIME_SYSTEM":"UTC","MEAN_MOTION":"15.06402213","INCLINATION":"53.0554","APOAPSIS":"548.089","CENTER_NAME":"EARTH","PERIAPSIS":"546.324","RCS_SIZE":"LARGE","DECAY_DATE":null,"ECCENTRICITY":"0.00012740","REV_AT_EPOCH":"2700","TLE_LINE2":"2 48366  53.0554 304.5103 0001274  80.8353 279.2780 15.06402213 27006","MEAN_MOTION_DDOT":"0.0000000000000","RA_OF_ASC_NODE":"304.5103","OBJECT_ID":"2021-038P","MEAN_MOTION_DOT":"0.00000659","EPHEMERIS_TYPE":"0","MEAN_ELEMENT_THEORY":"SGP4","SITE":"AFETR","ARG_OF_PERICENTER":"80.8353","CLASSIFICATION_TYPE":"U","OBJECT_TYPE":"PAYLOAD","REF_FRAME":"TEME","FILE":"3189111","TLE_LINE1":"1 48366U 21038P   21301.32268686  .00000659  00000-0  63105-4 0  9998","GP_ID":"188338808"}];
